{
  "norad_id": 20442,
  "name": "LUSAT (LO-19)",
  "history": [
    {
      "epoch": "2026-05-05T06:34:36.866784Z",
      "apogee_km": 785.956829913187,
      "perigee_km": 770.0959094206564,
      "latitude_deg": -6.394228715108029e-05,
      "longitude_deg": -175.91317785479674,
      "height_km": 773.6328502490209,
      "semi_major_axis_km": 7156.163369666921,
      "eccentricity": 0.0011082,
      "inclination_deg": 98.8877,
      "raan_deg": 145.8918,
      "arg_perigee_deg": 337.4661,
      "mean_anomaly_deg": 22.6034,
      "mean_motion_rev_day": 14.34109762
    },
    {
      "epoch": "2026-05-06T00:59:45.525696Z",
      "apogee_km": 785.9288090286836,
      "perigee_km": 770.1227060995416,
      "latitude_deg": -2.9441585264322132e-05,
      "longitude_deg": -92.16680938303338,
      "height_km": 773.7869946377028,
      "semi_major_axis_km": 7156.162757564112,
      "eccentricity": 0.00110437,
      "inclination_deg": 98.8877,
      "raan_deg": 146.6807,
      "arg_perigee_deg": 335.1376,
      "mean_anomaly_deg": 24.9274,
      "mean_motion_rev_day": 14.34109946
    },
    {
      "epoch": "2026-05-07T13:50:02.808096Z",
      "apogee_km": 785.8694702462217,
      "perigee_km": 770.1788712632251,
      "latitude_deg": -8.387889851359565e-05,
      "longitude_deg": 75.32599503003728,
      "height_km": 774.1321232315019,
      "semi_major_axis_km": 7156.161170754724,
      "eccentricity": 0.0010963,
      "inclination_deg": 98.8876,
      "raan_deg": 148.2584,
      "arg_perigee_deg": 330.4457,
      "mean_anomaly_deg": 29.6105,
      "mean_motion_rev_day": 14.34110423
    },
    {
      "epoch": "2026-05-08T13:16:35.603904Z",
      "apogee_km": 785.8341715445194,
      "perigee_km": 770.2122737784493,
      "latitude_deg": -1.9109019465314078e-05,
      "longitude_deg": 83.73048579642366,
      "height_km": 774.3737384774055,
      "semi_major_axis_km": 7156.160222661484,
      "eccentricity": 0.0010915,
      "inclination_deg": 98.8875,
      "raan_deg": 149.2623,
      "arg_perigee_deg": 327.427,
      "mean_anomaly_deg": 32.6239,
      "mean_motion_rev_day": 14.34110708
    },
    {
      "epoch": "2026-05-09T19:25:00.615360Z",
      "apogee_km": 785.7817513539485,
      "perigee_km": 770.262904235693,
      "latitude_deg": -4.2289313198625517e-07,
      "longitude_deg": -8.320851716822444,
      "height_km": 774.7208602954205,
      "semi_major_axis_km": 7156.1593277948205,
      "eccentricity": 0.0010843,
      "inclination_deg": 98.8874,
      "raan_deg": 150.553,
      "arg_perigee_deg": 323.4661,
      "mean_anomaly_deg": 36.5782,
      "mean_motion_rev_day": 14.34110977
    },
    {
      "epoch": "2026-05-10T20:32:01.438944Z",
      "apogee_km": 785.7457670293206,
      "perigee_km": 770.2970522545847,
      "latitude_deg": 3.320233002821426e-05,
      "longitude_deg": -25.03020403081674,
      "height_km": 775.0274380017539,
      "semi_major_axis_km": 7156.158409641952,
      "eccentricity": 0.0010794,
      "inclination_deg": 98.8873,
      "raan_deg": 151.6286,
      "arg_perigee_deg": 320.1195,
      "mean_anomaly_deg": 39.9195,
      "mean_motion_rev_day": 14.34111253
    },
    {
      "epoch": "2026-05-11T11:36:13.929984Z",
      "apogee_km": 785.7279212474687,
      "perigee_km": 770.3137004460596,
      "latitude_deg": -7.031847636317921e-05,
      "longitude_deg": 108.94435735856591,
      "height_km": 775.2118733981328,
      "semi_major_axis_km": 7156.157810846764,
      "eccentricity": 0.00107699,
      "inclination_deg": 98.8872,
      "raan_deg": 152.2741,
      "arg_perigee_deg": 318.1689,
      "mean_anomaly_deg": 41.867,
      "mean_motion_rev_day": 14.34111433
    },
    {
      "epoch": "2026-05-12T00:59:58.362144Z",
      "apogee_km": 785.7125086381693,
      "perigee_km": 770.3282015561808,
      "latitude_deg": -5.0707859101146987e-05,
      "longitude_deg": -91.96732057801142,
      "height_km": 775.3831653656683,
      "semi_major_axis_km": 7156.157355097174,
      "eccentricity": 0.0010749,
      "inclination_deg": 98.8872,
      "raan_deg": 152.8477,
      "arg_perigee_deg": 316.4067,
      "mean_anomaly_deg": 43.6266,
      "mean_motion_rev_day": 14.3411157
    },
    {
      "epoch": "2026-05-13T12:09:47.482848Z",
      "apogee_km": 785.6632336373586,
      "perigee_km": 770.3748218996352,
      "latitude_deg": -2.7555127670692052e-05,
      "longitude_deg": 100.63978747409806,
      "height_km": 775.8591684233397,
      "semi_major_axis_km": 7156.156027768497,
      "eccentricity": 0.0010682,
      "inclination_deg": 98.8871,
      "raan_deg": 154.3536,
      "arg_perigee_deg": 311.7892,
      "mean_anomaly_deg": 48.2378,
      "mean_motion_rev_day": 14.34111969
    }
  ]
}